[{"OBJECT_NAME":"OBJECT F","OBJECT_ID":"2022-167F","EPOCH":"2026-03-09T22:34:52.000032","MEAN_MOTION":15.68472614,"ECCENTRICITY":0.00018013,"INCLINATION":97.6217,"RA_OF_ASC_NODE":246.6908,"ARG_OF_PERICENTER":28.5626,"MEAN_ANOMALY":331.5733,"EPHEMERIS_TYPE":0,"CLASSIFICATION_TYPE":"U","NORAD_CAT_ID":54687,"ELEMENT_SET_NO":999,"REV_AT_EPOCH":18117,"BSTAR":0.00078904481,"MEAN_MOTION_DOT":0.00089617,"MEAN_MOTION_DDOT":0},{"OBJECT_NAME":"STARLINK-11357 [DTC]","OBJECT_ID":"2024-184K","EPOCH":"2026-03-09T16:38:25.507392","MEAN_MOTION":15.69700412,"ECCENTRICITY":6.578e-5,"INCLINATION":53.1601,"RA_OF_ASC_NODE":236.5531,"ARG_OF_PERICENTER":93.0013,"MEAN_ANOMALY":267.108,"EPHEMERIS_TYPE":0,"CLASSIFICATION_TYPE":"U","NORAD_CAT_ID":61541,"ELEMENT_SET_NO":999,"REV_AT_EPOCH":8041,"BSTAR":7.179233e-6,"MEAN_MOTION_DOT":2.82e-6,"MEAN_MOTION_DDOT":0}]
